{"fetched_at":"2026-07-14T06:34:23.487Z","source":"https://celestrak.org/NORAD/elements/gp.php?GROUP=planet&FORMAT=JSON","constellation":"superdove","records":[{"OBJECT_NAME":"FLOCK 4H-34","OBJECT_ID":"2025-276BZ","EPOCH":"2026-07-13T04:15:43.472736","CLASSIFICATION_TYPE":"U","MEAN_MOTION":15.20822299,"ECCENTRICITY":0.0002346,"INCLINATION":97.4236,"RA_OF_ASC_NODE":267.6194,"ARG_OF_PERICENTER":175.277,"MEAN_ANOMALY":184.8488,"EPHEMERIS_TYPE":0,"NORAD_CAT_ID":66737,"ELEMENT_SET_NO":999,"REV_AT_EPOCH":3363,"BSTAR":0.00018324,"MEAN_MOTION_DOT":0.00003973,"MEAN_MOTION_DDOT":0},{"OBJECT_NAME":"FLOCK 4H-35","OBJECT_ID":"2025-276CA","EPOCH":"2026-07-13T16:18:55.785312","CLASSIFICATION_TYPE":"U","MEAN_MOTION":15.2094278,"ECCENTRICITY":0.0002406,"INCLINATION":97.4195,"RA_OF_ASC_NODE":268.0525,"ARG_OF_PERICENTER":154.9011,"MEAN_ANOMALY":205.2342,"EPHEMERIS_TYPE":0,"NORAD_CAT_ID":66738,"ELEMENT_SET_NO":999,"REV_AT_EPOCH":3375,"BSTAR":0.0001898,"MEAN_MOTION_DOT":0.00004133,"MEAN_MOTION_DDOT":0},{"OBJECT_NAME":"FLOCK 4H-36","OBJECT_ID":"2025-276CB","EPOCH":"2026-07-13T15:39:20.423808","CLASSIFICATION_TYPE":"U","MEAN_MOTION":15.20705704,"ECCENTRICITY":0.0002305,"INCLINATION":97.4243,"RA_OF_ASC_NODE":268.0801,"ARG_OF_PERICENTER":188.5179,"MEAN_ANOMALY":171.6017,"EPHEMERIS_TYPE":0,"NORAD_CAT_ID":66739,"ELEMENT_SET_NO":999,"REV_AT_EPOCH":3445,"BSTAR":0.00016499,"MEAN_MOTION_DOT":0.00003558,"MEAN_MOTION_DDOT":0}]}
