FLOCK 4H-34             
1 66737U 25276BZ  26194.17758649  .00003973  00000+0  18324-3 0  9992
2 66737  97.4236 267.6194 0002346 175.2770 184.8488 15.20822299 33637
FLOCK 4H-35             
1 66738U 25276CA  26194.67981233  .00004133  00000+0  18980-3 0  9992
2 66738  97.4195 268.0525 0002406 154.9011 205.2342 15.20942780 33752
FLOCK 4H-36             
1 66739U 25276CB  26194.65231972  .00003558  00000+0  16499-3 0  9992
2 66739  97.4243 268.0801 0002305 188.5179 171.6017 15.20705704 34456
